STARLINK-2024
1 27606C 21009BL  21325.11440827  .00008897  00000-0  59628-3 0  3253
2 27606  53.0526 217.7013 0001909  70.2009  34.3301 15.06379820    10
